ONEWEB-0363             
1 49289U 21090L   25275.13700532  .00000025  00000+0  30127-4 0  9999
2 49289  87.9243 325.8961 0001922  85.7749 274.3604 13.20771932196248
ONEWEB-0364             
1 49290U 21090M   25275.09913148  .00000124  00000+0  27279-3 0  9998
2 49290  87.9239 325.9296 0001861  92.5378 267.5968 13.20771372197373
ONEWEB-0365             
1 49291U 21090N   25274.95469628 -.00000076  00000+0 -22284-3 0  9991
2 49291  87.9287 356.3080 0001815 103.0568 257.0767 13.19726534192367
ONEWEB-0366             
1 49292U 21090P   25275.16823829  .00000186  00000+0  46644-3 0  9999
2 49292  87.9063 341.1094 0001929  97.0195 263.1154 13.14502358193664
ONEWEB-0367             
1 49293U 21090Q   25275.13542807  .00000053  00000+0  98030-4 0  9991
2 49293  87.9245 325.8925 0001954 102.7059 257.4293 13.20771173195763
ONEWEB-0368             
1 49294U 21090R   25275.10860049  .00000017  00000+0  92786-5 0  9993
2 49294  87.9239 325.9329 0001190  82.8197 277.3071 13.20771550196911
ONEWEB-0369             
1 49295U 21090S   25275.17741683  .00000128  00000+0  28848-3 0  9992
2 49295  87.9284 356.2956 0001790 102.1794 257.9539 13.19727126192388
ONEWEB-0370             
1 49296U 21090T   25275.06914597  .00000008  00000+0 -12992-4 0  9999
2 49296  87.9243 325.9139 0002244 101.5236 258.6150 13.20771776195796
